{
    "links": {
        "self": "http://www.neowsapp.com/rest/v1/neo/3789423?api_key=iIulBulltgU6a56xZRHN4H3l9WmuAYTsLGpBGhQ2"
    },
    "id": "3789423",
    "neo_reference_id": "3789423",
    "name": "(2017 VZ14)",
    "designation": "2017 VZ14",
    "nasa_jpl_url": "http://ssd.jpl.nasa.gov/sbdb.cgi?sstr=3789423",
    "absolute_magnitude_h": 25.1,
    "estimated_diameter": {
        "kilometers": {
            "estimated_diameter_min": 0.0253837029,
            "estimated_diameter_max": 0.0567596853
        },
        "meters": {
            "estimated_diameter_min": 25.3837029364,
            "estimated_diameter_max": 56.7596852866
        },
        "miles": {
            "estimated_diameter_min": 0.0157726969,
            "estimated_diameter_max": 0.0352688224
        },
        "feet": {
            "estimated_diameter_min": 83.279867942,
            "estimated_diameter_max": 186.2194458756
        }
    },
    "is_potentially_hazardous_asteroid": false,
    "close_approach_data": [
        {
            "close_approach_date": "2017-11-24",
            "close_approach_date_full": "2017-Nov-24 09:48",
            "epoch_date_close_approach": 1511516880000,
            "relative_velocity": {
                "kilometers_per_second": "9.2511575725",
                "kilometers_per_hour": "33304.1672608225",
                "miles_per_hour": "20693.9143738149"
            },
            "miss_distance": {
                "astronomical": "0.0099966443",
                "lunar": "3.8886946327",
                "kilometers": "1495476.694427641",
                "miles": "929246.1282018058"
            },
            "orbiting_body": "Moon"
        },
        {
            "close_approach_date": "2017-11-24",
            "close_approach_date_full": "2017-Nov-24 11:40",
            "epoch_date_close_approach": 1511523600000,
            "relative_velocity": {
                "kilometers_per_second": "8.3908745206",
                "kilometers_per_hour": "30207.1482741381",
                "miles_per_hour": "18769.5472151165"
            },
            "miss_distance": {
                "astronomical": "0.0081691555",
                "lunar": "3.1778014895",
                "kilometers": "1222088.262498785",
                "miles": "759370.433841833"
            },
            "orbiting_body": "Earth"
        },
        {
            "close_approach_date": "2026-02-13",
            "close_approach_date_full": "2026-Feb-13 19:06",
            "epoch_date_close_approach": 1771009560000,
            "relative_velocity": {
                "kilometers_per_second": "15.8755558354",
                "kilometers_per_hour": "57152.0010074022",
                "miles_per_hour": "35512.0308481828"
            },
            "miss_distance": {
                "astronomical": "0.2529314025",
                "lunar": "98.3903155725",
                "kilometers": "37837999.070112675",
                "miles": "23511442.382097915"
            },
            "orbiting_body": "Earth"
        }
    ],
    "orbital_data": {
        "orbit_id": "10",
        "orbit_determination_date": "2020-09-11 07:38:31",
        "first_observation_date": "2017-11-15",
        "last_observation_date": "2017-11-25",
        "data_arc_in_days": 10,
        "observations_used": 146,
        "orbit_uncertainty": "7",
        "minimum_orbit_intersection": ".0066619",
        "jupiter_tisserand_invariant": "3.739",
        "epoch_osculation": "2459000.5",
        "eccentricity": ".5081413481643006",
        "semi_major_axis": "1.93371728112393",
        "inclination": "3.503988941632912",
        "ascending_node_longitude": "236.82111599",
        "orbital_period": "982.1727813692413",
        "perihelion_distance": ".9511155749250104",
        "perihelion_argument": "213.5562115085235",
        "aphelion_distance": "2.91631898732285",
        "perihelion_time": "2459087.605209257020",
        "mean_anomaly": "328.07295424252",
        "mean_motion": ".366534286867659",
        "equinox": "J2000",
        "orbit_class": {
            "orbit_class_type": "APO",
            "orbit_class_description": "Near-Earth asteroid orbits which cross the Earth’s orbit similar to that of 1862 Apollo",
            "orbit_class_range": "a (semi-major axis) > 1.0 AU; q (perihelion) < 1.017 AU"
        }
    },
    "is_sentry_object": false
}